PRC TEST SPACECRAFT 4   
1 67689U 26024A   26046.58755415  .00000283  00000+0  51821-4 0  9991
2 67689  49.9852 126.5242 0006181 275.0131  85.0105 14.91673537  1288
CZ-2F R/B               
1 67690U 26024B   26043.68605831  .00010419  00000+0  20043-3 0  9990
2 67690  49.9859 139.9043 0177333 171.2576 189.1542 15.33223548   855
CZ-2F DEB               
1 67691U 26024C   26046.53168585  .00722576  10293-4  96462-3 0  9990
2 67691  49.9095 123.8560 0253226 190.1482 169.4322 15.66635228  1302
CZ-2F DEB               
1 67692U 26024D   26043.47249242  .00008960  00000+0  18237-3 0  9999
2 67692  50.2497 141.4689 0244463 185.6574 174.1612 15.21014172   827
STARLINK-36748          
1 67693U 26025A   26046.58335648 -.01310427  54452-3 -25067-2 0  9991
2 67693  97.2804 156.8593 0001525  64.1216  27.7620 16.00648213  2291
STARLINK-36753          
1 67694U 26025B   26046.58335648 -.01281532  52652-3 -23582-2 0  9996
2 67694  97.2796 156.8635 0001538  60.7406  42.0027 16.01321853  2454
STARLINK-36750          
1 67695U 26025C   26046.58335648 -.01297376  53602-3 -24468-2 0  9990
2 67695  97.2801 156.8608 0001416  71.7771  24.0701 16.00895473  2298
STARLINK-36401          
1 67696U 26025D   26046.58335648 -.01278821  52307-3 -23849-2 0  9998
2 67696  97.2799 156.8622 0001432  69.3572  29.7576 16.01088707  2298
STARLINK-36704          
1 67697U 26025E   26046.58335648 -.01262390  51339-3 -22926-2 0  9992
2 67697  97.2794 156.8655 0001532  66.5707  39.8080 16.01548161  2297
STARLINK-36697          
1 67698U 26025F   26046.58335648 -.01251238  50596-3 -22511-2 0  9996
2 67698  97.2795 156.8666 0001540  64.7287  44.3535 16.01709129  2247
STARLINK-36716          
1 67699U 26025G   26046.58335648 -.01252268  50801-3 -22245-2 0  9994
2 67699  97.2791 156.8677 0001372  67.6146  44.8855 16.01929899  2456
STARLINK-36712          
1 67700U 26025H   26046.58335648 -.01246467  50488-3 -21874-2 0  9999
2 67700  97.2790 156.8697 0001426  64.6529  51.1686 16.02138558  2247
