CCSDS_OMM_VERS = 2.0
CREATION_DATE  = 
ORIGINATOR     = 

OBJECT_NAME    = PRC TEST SPACECRAFT 4
OBJECT_ID      = 2026-024A
CENTER_NAME    = EARTH
REF_FRAME      = TEME
TIME_SYSTEM    = UTC
MEAN_ELEMENT_THEORY = SGP/SGP4

EPOCH          = 2026-02-15T14:06:04.678560
MEAN_MOTION    = 14.91673537
ECCENTRICITY   = .00061818
INCLINATION    = 49.9852
RA_OF_ASC_NODE = 126.5242
ARG_OF_PERICENTER = 275.0131
MEAN_ANOMALY   = 85.0105

EPHEMERIS_TYPE = 0
CLASSIFICATION_TYPE = U
NORAD_CAT_ID   = 67689
ELEMENT_SET_NO = 999
REV_AT_EPOCH   = 128
BSTAR          = .51820871E-4
MEAN_MOTION_DOT = .283E-5
MEAN_MOTION_DDOT = 0

CCSDS_OMM_VERS = 2.0
CREATION_DATE  = 
ORIGINATOR     = 

OBJECT_NAME    = CZ-2F R/B
OBJECT_ID      = 2026-024B
CENTER_NAME    = EARTH
REF_FRAME      = TEME
TIME_SYSTEM    = UTC
MEAN_ELEMENT_THEORY = SGP/SGP4

EPOCH          = 2026-02-12T16:27:55.437984
MEAN_MOTION    = 15.33223548
ECCENTRICITY   = .01773338
INCLINATION    = 49.9859
RA_OF_ASC_NODE = 139.9043
ARG_OF_PERICENTER = 171.2576
MEAN_ANOMALY   = 189.1542

EPHEMERIS_TYPE = 0
CLASSIFICATION_TYPE = U
NORAD_CAT_ID   = 67690
ELEMENT_SET_NO = 999
REV_AT_EPOCH   = 85
BSTAR          = .200431E-3
MEAN_MOTION_DOT = .10419E-3
MEAN_MOTION_DDOT = 0

CCSDS_OMM_VERS = 2.0
CREATION_DATE  = 
ORIGINATOR     = 

OBJECT_NAME    = CZ-2F DEB
OBJECT_ID      = 2026-024C
CENTER_NAME    = EARTH
REF_FRAME      = TEME
TIME_SYSTEM    = UTC
MEAN_ELEMENT_THEORY = SGP/SGP4

EPOCH          = 2026-02-15T12:45:37.657440
MEAN_MOTION    = 15.66635228
ECCENTRICITY   = .02532266
INCLINATION    = 49.9095
RA_OF_ASC_NODE = 123.8560
ARG_OF_PERICENTER = 190.1482
MEAN_ANOMALY   = 169.4322

EPHEMERIS_TYPE = 0
CLASSIFICATION_TYPE = U
NORAD_CAT_ID   = 67691
ELEMENT_SET_NO = 999
REV_AT_EPOCH   = 130
BSTAR          = .96461628E-3
MEAN_MOTION_DOT = .722576E-2
MEAN_MOTION_DDOT = .10293148E-4

CCSDS_OMM_VERS = 2.0
CREATION_DATE  = 
ORIGINATOR     = 

OBJECT_NAME    = CZ-2F DEB
OBJECT_ID      = 2026-024D
CENTER_NAME    = EARTH
REF_FRAME      = TEME
TIME_SYSTEM    = UTC
MEAN_ELEMENT_THEORY = SGP/SGP4

EPOCH          = 2026-02-12T11:20:23.345088
MEAN_MOTION    = 15.21014172
ECCENTRICITY   = .02444636
INCLINATION    = 50.2497
RA_OF_ASC_NODE = 141.4689
ARG_OF_PERICENTER = 185.6574
MEAN_ANOMALY   = 174.1612

EPHEMERIS_TYPE = 0
CLASSIFICATION_TYPE = U
NORAD_CAT_ID   = 67692
ELEMENT_SET_NO = 999
REV_AT_EPOCH   = 82
BSTAR          = .18236751E-3
MEAN_MOTION_DOT = .896E-4
MEAN_MOTION_DDOT = 0

CCSDS_OMM_VERS = 2.0
CREATION_DATE  = 
ORIGINATOR     = 

OBJECT_NAME    = STARLINK-36748
OBJECT_ID      = 2026-025A
CENTER_NAME    = EARTH
REF_FRAME      = TEME
TIME_SYSTEM    = UTC
MEAN_ELEMENT_THEORY = SGP/SGP4

EPOCH          = 2026-02-15T14:00:01.999872
MEAN_MOTION    = 16.00648213
ECCENTRICITY   = .00015255
INCLINATION    = 97.2804
RA_OF_ASC_NODE = 156.8593
ARG_OF_PERICENTER = 64.1216
MEAN_ANOMALY   = 27.7620

EPHEMERIS_TYPE = 0
CLASSIFICATION_TYPE = U
NORAD_CAT_ID   = 67693
ELEMENT_SET_NO = 999
REV_AT_EPOCH   = 229
BSTAR          = -.25067481E-2
MEAN_MOTION_DOT = -.1310427E-1
MEAN_MOTION_DDOT = .54451895E-3

CCSDS_OMM_VERS = 2.0
CREATION_DATE  = 
ORIGINATOR     = 

OBJECT_NAME    = STARLINK-36753
OBJECT_ID      = 2026-025B
CENTER_NAME    = EARTH
REF_FRAME      = TEME
TIME_SYSTEM    = UTC
MEAN_ELEMENT_THEORY = SGP/SGP4

EPOCH          = 2026-02-15T14:00:01.999872
MEAN_MOTION    = 16.01321853
ECCENTRICITY   = .00015389
INCLINATION    = 97.2796
RA_OF_ASC_NODE = 156.8635
ARG_OF_PERICENTER = 60.7406
MEAN_ANOMALY   = 42.0027

EPHEMERIS_TYPE = 0
CLASSIFICATION_TYPE = U
NORAD_CAT_ID   = 67694
ELEMENT_SET_NO = 999
REV_AT_EPOCH   = 245
BSTAR          = -.2358223E-2
MEAN_MOTION_DOT = -.1281532E-1
MEAN_MOTION_DDOT = .526519E-3

CCSDS_OMM_VERS = 2.0
CREATION_DATE  = 
ORIGINATOR     = 

OBJECT_NAME    = STARLINK-36750
OBJECT_ID      = 2026-025C
CENTER_NAME    = EARTH
REF_FRAME      = TEME
TIME_SYSTEM    = UTC
MEAN_ELEMENT_THEORY = SGP/SGP4

EPOCH          = 2026-02-15T14:00:01.999872
MEAN_MOTION    = 16.00895473
ECCENTRICITY   = .00014161
INCLINATION    = 97.2801
RA_OF_ASC_NODE = 156.8608
ARG_OF_PERICENTER = 71.7771
MEAN_ANOMALY   = 24.0701

EPHEMERIS_TYPE = 0
CLASSIFICATION_TYPE = U
NORAD_CAT_ID   = 67695
ELEMENT_SET_NO = 999
REV_AT_EPOCH   = 229
BSTAR          = -.2446802E-2
MEAN_MOTION_DOT = -.1297376E-1
MEAN_MOTION_DDOT = .53602108E-3

CCSDS_OMM_VERS = 2.0
CREATION_DATE  = 
ORIGINATOR     = 

OBJECT_NAME    = STARLINK-36401
OBJECT_ID      = 2026-025D
CENTER_NAME    = EARTH
REF_FRAME      = TEME
TIME_SYSTEM    = UTC
MEAN_ELEMENT_THEORY = SGP/SGP4

EPOCH          = 2026-02-15T14:00:01.999872
MEAN_MOTION    = 16.01088707
ECCENTRICITY   = .00014325
INCLINATION    = 97.2799
RA_OF_ASC_NODE = 156.8622
ARG_OF_PERICENTER = 69.3572
MEAN_ANOMALY   = 29.7576

EPHEMERIS_TYPE = 0
CLASSIFICATION_TYPE = U
NORAD_CAT_ID   = 67696
ELEMENT_SET_NO = 999
REV_AT_EPOCH   = 229
BSTAR          = -.2384917E-2
MEAN_MOTION_DOT = -.1278821E-1
MEAN_MOTION_DDOT = .52307023E-3

CCSDS_OMM_VERS = 2.0
CREATION_DATE  = 
ORIGINATOR     = 

OBJECT_NAME    = STARLINK-36704
OBJECT_ID      = 2026-025E
CENTER_NAME    = EARTH
REF_FRAME      = TEME
TIME_SYSTEM    = UTC
MEAN_ELEMENT_THEORY = SGP/SGP4

EPOCH          = 2026-02-15T14:00:01.999872
MEAN_MOTION    = 16.01548161
ECCENTRICITY   = .0001532
INCLINATION    = 97.2794
RA_OF_ASC_NODE = 156.8655
ARG_OF_PERICENTER = 66.5707
MEAN_ANOMALY   = 39.8080

EPHEMERIS_TYPE = 0
CLASSIFICATION_TYPE = U
NORAD_CAT_ID   = 67697
ELEMENT_SET_NO = 999
REV_AT_EPOCH   = 229
BSTAR          = -.22925796E-2
MEAN_MOTION_DOT = -.126239E-1
MEAN_MOTION_DDOT = .51338536E-3

CCSDS_OMM_VERS = 2.0
CREATION_DATE  = 
ORIGINATOR     = 

OBJECT_NAME    = STARLINK-36697
OBJECT_ID      = 2026-025F
CENTER_NAME    = EARTH
REF_FRAME      = TEME
TIME_SYSTEM    = UTC
MEAN_ELEMENT_THEORY = SGP/SGP4

EPOCH          = 2026-02-15T14:00:01.999872
MEAN_MOTION    = 16.01709129
ECCENTRICITY   = .00015405
INCLINATION    = 97.2795
RA_OF_ASC_NODE = 156.8666
ARG_OF_PERICENTER = 64.7287
MEAN_ANOMALY   = 44.3535

EPHEMERIS_TYPE = 0
CLASSIFICATION_TYPE = U
NORAD_CAT_ID   = 67698
ELEMENT_SET_NO = 999
REV_AT_EPOCH   = 224
BSTAR          = -.22511091E-2
MEAN_MOTION_DOT = -.1251238E-1
MEAN_MOTION_DDOT = .50595957E-3

CCSDS_OMM_VERS = 2.0
CREATION_DATE  = 
ORIGINATOR     = 

OBJECT_NAME    = STARLINK-36716
OBJECT_ID      = 2026-025G
CENTER_NAME    = EARTH
REF_FRAME      = TEME
TIME_SYSTEM    = UTC
MEAN_ELEMENT_THEORY = SGP/SGP4

EPOCH          = 2026-02-15T14:00:01.999872
MEAN_MOTION    = 16.01929899
ECCENTRICITY   = .00013725
INCLINATION    = 97.2791
RA_OF_ASC_NODE = 156.8677
ARG_OF_PERICENTER = 67.6146
MEAN_ANOMALY   = 44.8855

EPHEMERIS_TYPE = 0
CLASSIFICATION_TYPE = U
NORAD_CAT_ID   = 67699
ELEMENT_SET_NO = 999
REV_AT_EPOCH   = 245
BSTAR          = -.2224466E-2
MEAN_MOTION_DOT = -.1252268E-1
MEAN_MOTION_DDOT = .50801435E-3

CCSDS_OMM_VERS = 2.0
CREATION_DATE  = 
ORIGINATOR     = 

OBJECT_NAME    = STARLINK-36712
OBJECT_ID      = 2026-025H
CENTER_NAME    = EARTH
REF_FRAME      = TEME
TIME_SYSTEM    = UTC
MEAN_ELEMENT_THEORY = SGP/SGP4

EPOCH          = 2026-02-15T14:00:01.999872
MEAN_MOTION    = 16.02138558
ECCENTRICITY   = .00014264
INCLINATION    = 97.2790
RA_OF_ASC_NODE = 156.8697
ARG_OF_PERICENTER = 64.6529
MEAN_ANOMALY   = 51.1686

EPHEMERIS_TYPE = 0
CLASSIFICATION_TYPE = U
NORAD_CAT_ID   = 67700
ELEMENT_SET_NO = 999
REV_AT_EPOCH   = 224
BSTAR          = -.2187402E-2
MEAN_MOTION_DOT = -.1246467E-1
MEAN_MOTION_DDOT = .50488209E-3

